ONEWEB-0258             
1 48976U 21060K   25189.82608663  .00000110  00000+0  25298-3 0  9997
2 48976  87.9053 297.2341 0001976  96.7814 263.3542 13.16594706194410
ONEWEB-0259             
1 48977U 21060L   25190.04774207 -.00000004  00000+0 -44838-4 0  9998
2 48977  87.9056 297.1740 0002127  97.7055 262.4317 13.16593562195761
ONEWEB-0260             
1 48978U 21060M   25190.19102349  .00000162  00000+0  39016-3 0  9991
2 48978  87.9052 297.1722 0002074 115.2215 244.9131 13.16594816195754
ONEWEB-0261             
1 48979U 21060N   25190.23693562  .00000036  00000+0  59869-4 0  9998
2 48979  87.9053 297.1643 0002434 103.7096 256.4306 13.16596300195838
ONEWEB-0262             
1 48980U 21060P   25190.52112393 -.00000226  00000+0 -62463-3 0  9996
2 48980  87.9040 297.0674 0002375  96.0724 264.0677 13.16608480195834
ONEWEB-0263             
1 48981U 21060Q   25190.02081922 -.00000109  00000+0 -31909-3 0  9996
2 48981  87.9055 297.1927 0002468  98.1066 262.0345 13.16592732195739
ONEWEB-0264             
1 48982U 21060R   25190.36202257  .00000100  00000+0  22784-3 0  9990
2 48982  87.9054 297.1305 0002091 100.1275 260.0092 13.16595200195771
ONEWEB-0266             
1 48984U 21060T   25190.23139563  .00000064  00000+0  13296-3 0  9994
2 48984  87.9058 297.1305 0001897  94.4473 265.6874 13.16595281195751
